{"type":"FeatureCollection","features":[{"type":"Feature","geometry":{"type":"LineString","coordinates":[[3342.83,1218.62],[3349.04,1229.31],[3357.31,1238.58],[3363.93,1248.98],[3373.92,1258.06],[3385.43,1265.21],[3395.72,1273.91],[3406.4,1273.12],[3416.69,1269.95],[3427.3,1268.69],[3434.22,1273.28],[3442.21,1275.75],[3449.34,1279.92]]},"properties":{"id":1,"name":"Shemnesha","type":"River","sourceWidth":0.05,"widthFactor":1,"discharge":114}},{"type":"Feature","geometry":{"type":"LineString","coordinates":[[3302.16,1282.33],[3307.77,1291.76],[3315.41,1299.72],[3321.43,1308.85],[3336.29,1308.49],[3350.93,1305.68],[3365.74,1304.83],[3378.18,1310.5],[3391.47,1313.91],[3404.08,1319.12],[3412.47,1314.3],[3419.48,1307.55],[3427.59,1302.34],[3435.51,1295.51],[3441.76,1287.07],[3449.34,1279.92],[3463.63,1282.7],[3478.22,1283.2],[3492.57,1285.53],[3497.43,1286.16],[3502.16,1284.54],[3506.99,1284.72],[3518.53,1282.95],[3529.57,1279.02],[3541.01,1276.82],[3554.92,1286.17],[3569.96,1293.63],[3584.1,1302.6],[3590.83,1301.29],[3597.45,1299.45],[3604.16,1298.03]]},"properties":{"id":2,"name":"Shelunyrang","type":"River","sourceWidth":0.05,"widthFactor":1.2,"discharge":594}},{"type":"Feature","geometry":{"type":"LineString","coordinates":[[3495.13,1030.04],[3505.4,1030.7],[3510.58,1020.97],[3513.58,1010.31],[3518.32,1000.39],[3526.48,998.04],[3533.76,993.53],[3541.74,990.75],[3546.67,987.11]]},"properties":{"id":3,"name":"Blackbell","type":"River","sourceWidth":0.07,"widthFactor":1.2,"discharge":755}},{"type":"Feature","geometry":{"type":"LineString","coordinates":[[3565.44,979.66],[3570.84,980.72]]},"properties":{"id":3,"name":"Blackbell","type":"River","sourceWidth":0.07,"widthFactor":1.2,"discharge":755}},{"type":"Feature","geometry":{"type":"LineString","coordinates":[[3507.27,1192.75],[3519.73,1198.69],[3533.1,1202.31],[3545.74,1207.79],[3560.27,1212.27],[3575.37,1214.37],[3590.01,1218.38],[3595.73,1220.91],[3602.08,1221.12],[3607.93,1223.19],[3621.96,1222.37],[3635.95,1220.95],[3649.98,1220.01]]},"properties":{"id":15,"name":"Mathanalos","type":"River","sourceWidth":0.05,"widthFactor":1.2,"discharge":117}},{"type":"Feature","geometry":{"type":"LineString","coordinates":[[3526.72,1367.46],[3537.15,1364.16],[3546.61,1358.56],[3556.85,1354.8],[3560.82,1352.45],[3563.11,1348.3],[3566.74,1345.59],[3574.81,1340.59],[3581.42,1333.68],[3589.2,1328.3],[3594.4,1318.31],[3599.07,1308.07],[3604.16,1298.03]]},"properties":{"id":16,"name":"Himserin","type":"River","sourceWidth":0.05,"widthFactor":1.2,"discharge":116}},{"type":"Feature","geometry":{"type":"LineString","coordinates":[[3510.22,1345.97],[3520.99,1339.61],[3530.31,1331.21],[3540.79,1324.44],[3550.63,1323.48],[3559.99,1320.13],[3569.73,1318.69]]},"properties":{"id":20,"name":"Elmeth","type":"River","sourceWidth":0.05,"widthFactor":1,"discharge":55}},{"type":"Feature","geometry":{"type":"LineString","coordinates":[[3499.77,1108.35],[3507.13,1101.35],[3512.59,1092.72],[3519.57,1085.39],[3531.04,1079.06],[3541.17,1070.69],[3552.37,1063.95],[3560.58,1051.99],[3566.71,1038.81],[3574.5,1026.6],[3579.51,1017.48],[3584.0,1008.08],[3588.9,998.9]]},"properties":{"id":24,"name":"Quickward","type":"River","sourceWidth":0.09,"widthFactor":1.2,"discharge":216}},{"type":"Feature","geometry":{"type":"LineString","coordinates":[[3556.56,1163.28],[3560.23,1168.44],[3565.68,1171.84],[3569.7,1176.65],[3584.31,1175.56],[3598.56,1172.05],[3613.1,1170.48],[3621.6,1172.02],[3630.26,1171.15],[3638.8,1172.2],[3650.58,1172.26],[3662.36,1171.74],[3674.14,1171.68]]},"properties":{"id":25,"name":"Elelo'anlean","type":"River","sourceWidth":0.05,"widthFactor":1.2,"discharge":163}},{"type":"Feature","geometry":{"type":"LineString","coordinates":[[3550.45,1425.28],[3557.42,1436.48]]},"properties":{"id":30,"name":"Nytheimynead","type":"River","sourceWidth":0.05,"widthFactor":1.2,"discharge":138}},{"type":"Feature","geometry":{"type":"LineString","coordinates":[[3579.09,1460.51],[3585.39,1461.65],[3590.9,1464.6],[3594.95,1473.21],[3599.54,1481.55],[3603.7,1490.1]]},"properties":{"id":30,"name":"Nytheimynead","type":"River","sourceWidth":0.05,"widthFactor":1.2,"discharge":138}},{"type":"Feature","geometry":{"type":"LineString","coordinates":[[3036.3,1590.38],[3034.29,1593.72],[3034.67,1597.75],[3033.14,1601.23],[3024.26,1608.77],[3017.12,1618.03],[3008.59,1625.91],[3000.75,1633.28]]},"properties":{"id":35,"name":"Orionntyr","type":"River","sourceWidth":0.05,"widthFactor":1.2,"discharge":172}},{"type":"Feature","geometry":{"type":"LineString","coordinates":[[3526.31,1315.81],[3530.18,1316.4],[3533.79,1314.5],[3537.61,1314.59],[3548.19,1316.93],[3559.08,1316.84],[3569.73,1318.69],[3575.24,1313.97],[3578.95,1307.64],[3584.1,1302.6]]},"properties":{"id":39,"name":"Illmalasha","type":"Fork","sourceWidth":0.05,"widthFactor":1,"discharge":147}},{"type":"Feature","geometry":{"type":"LineString","coordinates":[[2798.98,1522.26],[2802.37,1533.07],[2808.08,1542.93],[2811.94,1553.55],[2812.27,1561.96],[2815.03,1569.99],[2815.85,1578.32],[2807.7,1585.13],[2801.26,1593.65],[2793.45,1600.8],[2781.09,1617.54],[2770.69,1635.6],[2758.72,1652.61],[2748.35,1653.52],[2738.39,1656.73],[2728.1,1658.1],[2721.09,1667.47],[2714.54,1677.18],[2707.62,1686.62]]},"properties":{"id":49,"name":"Yenenebuluut","type":"River","sourceWidth":0.04,"widthFactor":1.2,"discharge":87}},{"type":"Feature","geometry":{"type":"LineString","coordinates":[[3555.4,1098.16],[3559.44,1096.73],[3562.11,1093.21],[3565.88,1091.36],[3571.92,1085.54],[3576.07,1078.16],[3581.73,1072.03],[3594.33,1064.79],[3605.59,1055.56],[3617.92,1047.92],[3622.74,1040.55],[3627.06,1032.86],[3631.78,1025.42]]},"properties":{"id":50,"name":"Gricepeak","type":"River","sourceWidth":0.05,"widthFactor":1.2,"discharge":159}},{"type":"Feature","geometry":{"type":"LineString","coordinates":[[3585.35,1113.5],[3595.27,1112.82],[3604.76,1109.67],[3614.59,1108.49],[3620.19,1109.73],[3625.9,1108.53],[3631.52,1109.28],[3635.33,1123.85],[3641.44,1137.65],[3645.71,1152.07],[3655.05,1158.8],[3664.73,1165.05],[3674.14,1171.68]]},"properties":{"id":51,"name":"Alorion","type":"River","sourceWidth":0.06,"widthFactor":1.2,"discharge":141}},{"type":"Feature","geometry":{"type":"LineString","coordinates":[[2960.68,1585.54],[2955.04,1591.06],[2951.35,1598.14],[2946.1,1603.97],[2949.86,1614.79],[2955.85,1624.62],[2960.06,1635.24],[2968.65,1640.98]]},"properties":{"id":59,"name":"Malan Ayan","type":"River","sourceWidth":0.05,"widthFactor":1,"discharge":41}},{"type":"Feature","geometry":{"type":"LineString","coordinates":[[3559.68,1249.15],[3569.64,1251.34],[3579.89,1251.04],[3589.91,1252.73],[3594.65,1247.61],[3597.39,1241.1],[3601.73,1235.7],[3617.14,1238.7],[3632.66,1241.11],[3648.1,1244.0]]},"properties":{"id":66,"name":"Thalas","type":"River","sourceWidth":0.07,"widthFactor":1.2,"discharge":108}},{"type":"Feature","geometry":{"type":"LineString","coordinates":[[2539.96,1655.37],[2539.96,1655.87],[2539.96,1655.37],[2535.66,1658.6],[2531.97,1662.53],[2527.8,1665.9],[2530.69,1677.75],[2536.65,1688.49],[2540.15,1700.12],[2539.55,1709.68],[2539.71,1719.27],[2539.26,1728.83]]},"properties":{"id":74,"name":"South Sorvagne","type":"River","sourceWidth":0.09,"widthFactor":3.3,"discharge":238}},{"type":"Feature","geometry":{"type":"LineString","coordinates":[[3607.96,1099.82],[3618.96,1097.53],[3629.23,1092.85],[3640.08,1090.09],[3651.7,1097.76],[3664.51,1103.3],[3676.37,1110.54],[3686.92,1113.47],[3697.9,1114.03],[3708.54,1116.48],[3713.8,1116.88],[3719.07,1116.68],[3724.33,1116.96]]},"properties":{"id":77,"name":"Scorcross","type":"River","sourceWidth":0.04,"widthFactor":1.2,"discharge":189}},{"type":"Feature","geometry":{"type":"LineString","coordinates":[[3590.88,1391.49],[3595.85,1386.49],[3598.83,1380.0],[3603.4,1374.7],[3611.56,1372.56],[3619.55,1369.83],[3627.68,1367.57]]},"properties":{"id":87,"name":"Chaulma","type":"River","sourceWidth":0.07,"widthFactor":1.2,"discharge":91}},{"type":"Feature","geometry":{"type":"LineString","coordinates":[[2683.63,1513.39],[2682.08,1523.01],[2683.02,1532.77],[2681.97,1542.42],[2689.88,1551.8],[2699.54,1559.46],[2707.8,1568.5],[2699.02,1579.11],[2692.19,1591.11],[2683.8,1602.0],[2677.88,1612.05],[2674.09,1623.14],[2668.6,1633.4],[2654.81,1635.36],[2641.5,1639.59],[2627.8,1642.0],[2613.56,1635.58],[2598.5,1631.29],[2584.1,1625.3],[2576.83,1624.7],[2569.65,1626.35],[2562.4,1626.2],[2557.18,1629.24],[2553.34,1634.01],[2548.4,1637.4]]},"properties":{"id":104,"name":"Durèle","type":"River","sourceWidth":0.23,"widthFactor":1.2,"discharge":184}},{"type":"Feature","geometry":{"type":"LineString","coordinates":[[3670.01,1085.92],[3679.73,1082.94],[3688.48,1077.65],[3698.0,1074.2],[3706.03,1071.06],[3713.82,1067.35],[3721.8,1064.1]]},"properties":{"id":164,"name":"Clifrost","type":"River","sourceWidth":0.06,"widthFactor":1.2,"discharge":114}},{"type":"Feature","geometry":{"type":"LineString","coordinates":[[2072.1,1274.4],[2082.51,1275.7],[2092.98,1274.5],[2103.4,1275.3],[2115.35,1274.91],[2127.01,1272.08],[2138.9,1271.2],[2149.68,1262.71],[2158.84,1252.44],[2169.3,1243.6],[2171.34,1233.5],[2171.03,1223.15],[2172.6,1213.0],[2171.72,1202.47],[2168.54,1192.35],[2167.2,1181.9],[2167.88,1170.15],[2166.27,1158.46],[2166.5,1146.72],[2171.34,1143.22]]},"properties":{"id":191,"name":"Arvenne","type":"River","sourceWidth":0.06,"widthFactor":1.2,"discharge":116}},{"type":"Feature","geometry":{"type":"LineString","coordinates":[[2522.5,1284.6],[2529.2,1286.49],[2536.23,1285.9],[2543.0,1287.3],[2545.96,1288.96],[2549.44,1288.22],[2552.5,1289.4],[2557.43,1293.84],[2563.7,1296.27],[2568.9,1300.3],[2574.06,1305.04],[2580.57,1307.84],[2586.0,1312.2],[2591.28,1317.22],[2597.94,1320.36],[2603.5,1325.0],[2610.34,1331.39],[2618.58,1335.97],[2625.7,1342.0],[2624.4,1352.9],[2625.35,1363.88],[2624.5,1374.8],[2626.69,1379.86],[2630.75,1383.72],[2633.32,1388.54],[2628.49,1402.26],[2625.78,1416.59],[2621.37,1430.43],[2616.53,1432.89],[2612.95,1437.08],[2608.36,1439.89],[2607.35,1452.9],[2604.66,1465.67],[2581.34,1463.89],[2558.2,1460.45],[2542.04,1476.54],[2527.09,1493.76],[2518.59,1499.98],[2511.16,1507.44],[2517.08,1509.62],[2523.36,1510.23],[2522.83,1536.12],[2523.89,1561.99],[2531.31,1574.97],[2540.04,1587.1],[2553.9,1590.44],[2567.32,1595.25],[2560.65,1612.28],[2552.6,1628.7],[2546.11,1641.96],[2539.96,1655.37]]},"properties":{"id":249,"name":"Sorvain","type":"River","sourceWidth":0.05,"widthFactor":1.7,"discharge":318}},{"type":"Feature","geometry":{"type":"LineString","coordinates":[[2320.9,1406.43],[2310.14,1406.22],[2299.57,1408.5],[2288.85,1408.79],[2277.92,1412.03],[2267.89,1417.55],[2257.14,1421.25],[2255.21,1430.41],[2255.67,1439.81],[2254.22,1449.02],[2262.27,1455.49],[2271.63,1459.98],[2279.94,1466.06],[2278.69,1475.43],[2279.76,1484.87],[2278.97,1494.25],[2281.29,1502.22],[2285.73,1509.31],[2288.48,1517.1],[2283.19,1525.66],[2279.91,1535.23],[2275.02,1543.99],[2285.14,1551.23],[2296.41,1556.58],[2306.76,1563.44],[2312.78,1566.12],[2319.41,1566.69],[2325.55,1568.95],[2321.99,1582.6],[2320.54,1596.67],[2317.4,1610.4],[2299.91,1621.55],[2283.4,1634.1],[2277.8,1649.2],[2273.8,1664.8],[2260.62,1687.56],[2248.9,1711.1],[2258.99,1721.69],[2270.2,1731.1],[2295.08,1729.4],[2319.8,1726.1],[2332.51,1739.27],[2346.3,1751.3],[2358.33,1760.05],[2371.2,1767.5],[2378.17,1773.85],[2385.4,1779.9]]},"properties":{"id":250,"name":"Nanteval","type":"River","sourceWidth":0.02,"widthFactor":1.4,"discharge":0}},{"type":"Feature","geometry":{"type":"LineString","coordinates":[[2345.7,1116.7],[2338.64,1117.6],[2332.23,1120.91],[2325.3,1122.3],[2316.69,1123.17],[2308.61,1126.45],[2300.1,1127.8],[2288.02,1124.39],[2275.47,1123.34],[2263.3,1120.4],[2261.1,1110.41]]},"properties":{"id":251,"name":"Namberg","type":"River","sourceWidth":0,"widthFactor":1,"discharge":45}}]}