{"type":"FeatureCollection","features":[{"type":"Feature","geometry":{"type":"LineString","coordinates":[[2538.58,1713.31],[2556.7,1704.7],[2573.16,1709.31],[2587.0,1704.69],[2618.87,1695.88],[2654.28,1702.91],[2669.3,1700.23],[2690.88,1685.85],[2705.05,1669.34],[2721.65,1670.91],[2723.77,1686.03],[2717.87,1701.89]]},"properties":{"id":1,"group":"roads","name":null}},{"type":"Feature","geometry":{"type":"LineString","coordinates":[[2166.64,1769.05],[2183.88,1760.59],[2201.67,1747.67],[2220.78,1743.94],[2270.38,1729.97],[2293.35,1733.28],[2312.67,1724.44],[2338.34,1723.63],[2360.1,1709.38],[2383.6,1698.41],[2414.87,1664.46]]},"properties":{"id":3,"group":"roads","name":null}},{"type":"Feature","geometry":{"type":"LineString","coordinates":[[2485.08,1686.62],[2507.94,1689.33],[2538.58,1713.31]]},"properties":{"id":4,"group":"roads","name":null}},{"type":"Feature","geometry":{"type":"LineString","coordinates":[[3476.93,1380.0],[3491.01,1350.08],[3488.18,1310.09],[3492.62,1284.93]]},"properties":{"id":5,"group":"roads","name":null}},{"type":"Feature","geometry":{"type":"LineString","coordinates":[[3400.5,1195.74],[3405.25,1204.23],[3426.95,1215.58],[3443.81,1225.07],[3455.28,1247.39],[3492.62,1284.93]]},"properties":{"id":6,"group":"roads","name":null}},{"type":"Feature","geometry":{"type":"LineString","coordinates":[[2204.16,1121.01],[2218.51,1108.6]]},"properties":{"id":14,"group":"trails","name":null}},{"type":"Feature","geometry":{"type":"LineString","coordinates":[[2039.63,1281.35],[2013.82,1253.42]]},"properties":{"id":18,"group":"trails","name":null}},{"type":"Feature","geometry":{"type":"LineString","coordinates":[[2039.63,1281.35],[2042.82,1292.19]]},"properties":{"id":19,"group":"trails","name":null}},{"type":"Feature","geometry":{"type":"LineString","coordinates":[[2145.89,1266.37],[2126.81,1265.26],[2100.91,1268.68],[2087.07,1264.51],[2039.63,1281.35]]},"properties":{"id":21,"group":"trails","name":null}},{"type":"Feature","geometry":{"type":"LineString","coordinates":[[2166.5,1146.72],[2144.5,1164.24],[2136.79,1181.85],[2143.07,1210.67],[2150.85,1238.08],[2145.89,1266.37],[2153.17,1306.27],[2161.54,1334.65],[2157.98,1361.58],[2159.56,1400.71],[2155.27,1423.46],[2159.73,1439.25],[2138.19,1466.25],[2095.43,1483.76],[2076.11,1470.36],[2050.93,1459.8],[2023.06,1453.3],[1991.96,1460.58],[1976.19,1443.43],[1969.8,1421.11],[1962.67,1391.05]]},"properties":{"id":22,"group":"trails","name":null}},{"type":"Feature","geometry":{"type":"LineString","coordinates":[[1932.47,1342.21],[1942.31,1331.75],[1961.0,1312.14],[1983.71,1304.92],[2008.75,1306.12],[2042.82,1292.19]]},"properties":{"id":25,"group":"trails","name":null}},{"type":"Feature","geometry":{"type":"LineString","coordinates":[[2336.35,1100.45],[2382.92,1078.24]]},"properties":{"id":26,"group":"trails","name":null}},{"type":"Feature","geometry":{"type":"LineString","coordinates":[[1932.47,1342.21],[1947.73,1366.26],[1962.67,1391.05]]},"properties":{"id":31,"group":"trails","name":null}},{"type":"Feature","geometry":{"type":"LineString","coordinates":[[1896.19,1322.57],[1889.7,1335.9],[1891.7,1353.67],[1887.5,1380.0],[1883.25,1406.39],[1882.5,1421.2],[1893.82,1434.09]]},"properties":{"id":37,"group":"trails","name":null}},{"type":"Feature","geometry":{"type":"LineString","coordinates":[[1932.47,1342.21],[1896.19,1322.57],[1892.32,1314.58],[1893.0,1303.0],[1898.28,1287.74],[1894.4,1270.8]]},"properties":{"id":38,"group":"trails","name":null}},{"type":"Feature","geometry":{"type":"LineString","coordinates":[[2370.1,1277.12],[2367.48,1306.01],[2352.03,1329.87],[2337.13,1359.14],[2320.9,1406.43],[2320.26,1423.53],[2302.94,1420.96],[2284.44,1414.95],[2257.14,1421.25],[2233.9,1417.18],[2220.03,1408.11],[2206.13,1401.12],[2193.53,1374.61],[2157.98,1361.58]]},"properties":{"id":43,"group":"trails","name":null}},{"type":"Feature","geometry":{"type":"LineString","coordinates":[[2422.34,1089.43],[2382.92,1078.24]]},"properties":{"id":45,"group":"trails","name":null}},{"type":"Feature","geometry":{"type":"LineString","coordinates":[[2423.81,1278.54],[2450.25,1265.11],[2466.03,1244.96]]},"properties":{"id":47,"group":"trails","name":null}},{"type":"Feature","geometry":{"type":"LineString","coordinates":[[2370.1,1277.12],[2423.81,1278.54]]},"properties":{"id":48,"group":"trails","name":null}},{"type":"Feature","geometry":{"type":"LineString","coordinates":[[1991.96,1460.58],[1989.0,1480.9],[1985.95,1501.32],[1976.92,1509.92]]},"properties":{"id":50,"group":"trails","name":null}},{"type":"Feature","geometry":{"type":"LineString","coordinates":[[2481.3,1179.19],[2476.1,1211.11],[2466.03,1244.96]]},"properties":{"id":51,"group":"trails","name":null}},{"type":"Feature","geometry":{"type":"LineString","coordinates":[[2478.81,1119.54],[2478.35,1139.39],[2485.3,1158.8],[2481.3,1179.19]]},"properties":{"id":53,"group":"trails","name":null}},{"type":"Feature","geometry":{"type":"LineString","coordinates":[[2371.27,1482.72],[2355.77,1464.29],[2332.69,1448.07],[2320.26,1423.53]]},"properties":{"id":58,"group":"trails","name":null}},{"type":"Feature","geometry":{"type":"LineString","coordinates":[[2302.94,1420.96],[2279.94,1466.06],[2278.97,1494.25],[2293.26,1513.73],[2305.7,1534.54],[2306.76,1563.44],[2296.24,1590.6],[2294.35,1625.24],[2256.07,1623.53],[2230.76,1630.89],[2195.89,1643.38]]},"properties":{"id":59,"group":"trails","name":null}},{"type":"Feature","geometry":{"type":"LineString","coordinates":[[2484.42,1305.01],[2508.62,1345.02],[2501.56,1362.37],[2476.62,1364.38],[2449.21,1353.49]]},"properties":{"id":60,"group":"trails","name":null}},{"type":"Feature","geometry":{"type":"LineString","coordinates":[[2484.42,1305.01],[2513.03,1300.09],[2508.62,1345.02],[2535.36,1365.44],[2566.45,1368.97],[2571.31,1385.25],[2585.05,1397.3],[2608.36,1439.89],[2621.57,1462.17],[2621.28,1492.68],[2625.74,1518.79],[2617.73,1534.97],[2604.87,1544.55],[2591.02,1572.26],[2577.74,1594.57],[2570.02,1613.91],[2553.06,1623.46],[2538.34,1626.83],[2526.3,1638.8],[2515.5,1655.0],[2507.94,1689.33]]},"properties":{"id":61,"group":"trails","name":null}},{"type":"Feature","geometry":{"type":"LineString","coordinates":[[2450.25,1265.11],[2484.42,1305.01]]},"properties":{"id":62,"group":"trails","name":null}},{"type":"Feature","geometry":{"type":"LineString","coordinates":[[2480.13,1415.82],[2479.74,1391.8],[2476.62,1364.38]]},"properties":{"id":67,"group":"trails","name":null}},{"type":"Feature","geometry":{"type":"LineString","coordinates":[[2485.3,1158.8],[2516.22,1122.87],[2537.89,1115.59],[2572.89,1114.75]]},"properties":{"id":69,"group":"trails","name":null}},{"type":"Feature","geometry":{"type":"LineString","coordinates":[[2619.59,1206.29],[2615.48,1183.42],[2625.32,1162.94],[2646.9,1148.9]]},"properties":{"id":97,"group":"trails","name":null}},{"type":"Feature","geometry":{"type":"LineString","coordinates":[[2625.32,1162.94],[2589.31,1147.35],[2579.66,1136.07],[2572.89,1114.75]]},"properties":{"id":98,"group":"trails","name":null}},{"type":"Feature","geometry":{"type":"LineString","coordinates":[[1985.95,1501.32],[2007.08,1515.16],[2030.6,1522.7],[2044.88,1537.21],[2049.94,1558.65],[2059.9,1570.5],[2069.93,1582.35],[2087.76,1602.16],[2095.1,1626.3],[2106.8,1633.6],[2117.9,1657.7],[2134.44,1668.44],[2138.34,1685.49],[2128.17,1696.04],[2114.08,1697.53],[2104.19,1723.9]]},"properties":{"id":101,"group":"trails","name":null}},{"type":"Feature","geometry":{"type":"LineString","coordinates":[[2480.13,1415.82],[2445.32,1453.21],[2422.13,1469.52],[2398.36,1471.36],[2371.27,1482.72]]},"properties":{"id":110,"group":"trails","name":null}},{"type":"Feature","geometry":{"type":"LineString","coordinates":[[2201.67,1747.67],[2183.19,1724.09],[2175.46,1700.15],[2177.98,1676.44],[2195.89,1643.38]]},"properties":{"id":112,"group":"trails","name":null}},{"type":"Feature","geometry":{"type":"LineString","coordinates":[[2177.98,1676.44],[2138.34,1685.49]]},"properties":{"id":113,"group":"trails","name":null}},{"type":"Feature","geometry":{"type":"LineString","coordinates":[[2312.67,1724.44],[2322.72,1701.35],[2320.28,1666.56],[2309.63,1644.7],[2300.41,1637.14],[2294.35,1625.24]]},"properties":{"id":115,"group":"trails","name":null}},{"type":"Feature","geometry":{"type":"LineString","coordinates":[[2286.03,1778.86],[2272.5,1764.7],[2270.38,1729.97]]},"properties":{"id":119,"group":"trails","name":null}},{"type":"Feature","geometry":{"type":"LineString","coordinates":[[2286.03,1778.86],[2311.29,1778.91],[2335.12,1789.98],[2351.68,1774.09],[2370.7,1765.5],[2389.75,1756.87],[2411.05,1741.93],[2434.61,1739.93],[2457.29,1752.98],[2470.15,1772.78]]},"properties":{"id":131,"group":"trails","name":null}},{"type":"Feature","geometry":{"type":"LineString","coordinates":[[2684.17,1147.16],[2646.9,1148.9]]},"properties":{"id":132,"group":"trails","name":null}},{"type":"Feature","geometry":{"type":"LineString","coordinates":[[2619.59,1206.29],[2641.66,1220.18],[2650.91,1236.29],[2677.38,1252.45],[2695.0,1273.03],[2710.31,1285.14],[2718.84,1301.33],[2744.11,1311.4],[2755.76,1326.61],[2771.87,1330.69],[2786.34,1368.51],[2784.04,1399.44],[2766.87,1419.56],[2757.94,1455.42],[2768.48,1481.81],[2790.2,1502.57],[2775.42,1517.17],[2747.87,1519.72],[2721.79,1508.9],[2723.25,1552.02]]},"properties":{"id":138,"group":"trails","name":null}},{"type":"Feature","geometry":{"type":"LineString","coordinates":[[2721.79,1508.9],[2715.74,1495.49],[2700.08,1482.27],[2675.2,1479.74],[2656.17,1485.42],[2621.28,1492.68]]},"properties":{"id":145,"group":"trails","name":null}},{"type":"Feature","geometry":{"type":"LineString","coordinates":[[2799.68,1268.93],[2773.25,1277.07],[2759.52,1288.31],[2744.11,1311.4]]},"properties":{"id":146,"group":"trails","name":null}},{"type":"Feature","geometry":{"type":"LineString","coordinates":[[2485.08,1686.62],[2480.67,1710.79],[2480.42,1731.59],[2492.97,1763.61],[2470.15,1772.78]]},"properties":{"id":155,"group":"trails","name":null}},{"type":"Feature","geometry":{"type":"LineString","coordinates":[[2555.86,1729.47],[2573.16,1709.31]]},"properties":{"id":156,"group":"trails","name":null}},{"type":"Feature","geometry":{"type":"LineString","coordinates":[[2538.58,1713.31],[2516.4,1717.89],[2495.67,1739.53],[2492.97,1763.61]]},"properties":{"id":157,"group":"trails","name":null}},{"type":"Feature","geometry":{"type":"LineString","coordinates":[[2708.19,1568.77],[2723.25,1552.02]]},"properties":{"id":158,"group":"trails","name":null}},{"type":"Feature","geometry":{"type":"LineString","coordinates":[[2799.68,1268.93],[2819.62,1284.81],[2852.49,1292.42],[2866.16,1294.13],[2880.33,1287.23],[2890.42,1282.24]]},"properties":{"id":169,"group":"trails","name":null}},{"type":"Feature","geometry":{"type":"LineString","coordinates":[[2555.86,1729.47],[2582.5,1729.0],[2594.91,1741.93],[2610.3,1748.2],[2628.67,1747.82]]},"properties":{"id":172,"group":"trails","name":null}},{"type":"Feature","geometry":{"type":"LineString","coordinates":[[2891.38,1385.88],[2879.29,1387.27],[2861.79,1380.85],[2836.96,1365.56],[2821.55,1362.84],[2786.34,1368.51]]},"properties":{"id":185,"group":"trails","name":null}},{"type":"Feature","geometry":{"type":"LineString","coordinates":[[2721.65,1670.91],[2758.94,1652.86],[2739.73,1626.09],[2736.13,1611.02],[2708.19,1568.77]]},"properties":{"id":190,"group":"trails","name":null}},{"type":"Feature","geometry":{"type":"LineString","coordinates":[[2654.28,1702.91],[2640.22,1707.92],[2631.7,1722.9],[2628.67,1747.82]]},"properties":{"id":196,"group":"trails","name":null}},{"type":"Feature","geometry":{"type":"LineString","coordinates":[[2891.38,1385.88],[2924.33,1391.16],[2923.64,1432.99],[2907.27,1468.94],[2924.65,1496.53],[2924.92,1528.35],[2968.59,1549.44],[2994.82,1549.13],[3029.95,1565.12],[3044.14,1547.92]]},"properties":{"id":198,"group":"trails","name":null}},{"type":"Feature","geometry":{"type":"LineString","coordinates":[[2866.16,1294.13],[2880.11,1320.32],[2883.16,1340.94],[2891.38,1385.88]]},"properties":{"id":199,"group":"trails","name":null}},{"type":"Feature","geometry":{"type":"LineString","coordinates":[[2907.27,1468.94],[2893.69,1479.51],[2868.32,1486.07],[2828.84,1492.42],[2790.2,1502.57]]},"properties":{"id":200,"group":"trails","name":null}},{"type":"Feature","geometry":{"type":"LineString","coordinates":[[2924.33,1391.16],[2962.96,1408.64]]},"properties":{"id":213,"group":"trails","name":null}},{"type":"Feature","geometry":{"type":"LineString","coordinates":[[2758.94,1652.86],[2770.16,1669.35],[2776.81,1697.78]]},"properties":{"id":232,"group":"trails","name":null}},{"type":"Feature","geometry":{"type":"LineString","coordinates":[[3019.81,1419.36],[3003.27,1416.07],[2962.96,1408.64]]},"properties":{"id":248,"group":"trails","name":null}},{"type":"Feature","geometry":{"type":"LineString","coordinates":[[3008.59,1625.91],[3033.14,1601.23],[3036.47,1590.43]]},"properties":{"id":250,"group":"trails","name":null}},{"type":"Feature","geometry":{"type":"LineString","coordinates":[[3048.13,1576.07],[3029.95,1565.12]]},"properties":{"id":253,"group":"trails","name":null}},{"type":"Feature","geometry":{"type":"LineString","coordinates":[[3094.74,1509.09],[3100.49,1548.05],[3044.14,1547.92]]},"properties":{"id":258,"group":"trails","name":null}},{"type":"Feature","geometry":{"type":"LineString","coordinates":[[3094.74,1509.09],[3106.74,1495.96],[3090.84,1483.13],[3081.15,1458.76]]},"properties":{"id":260,"group":"trails","name":null}},{"type":"Feature","geometry":{"type":"LineString","coordinates":[[3048.13,1576.07],[3036.47,1590.43]]},"properties":{"id":264,"group":"trails","name":null}},{"type":"Feature","geometry":{"type":"LineString","coordinates":[[3069.03,1589.82],[3048.13,1576.07]]},"properties":{"id":265,"group":"trails","name":null}},{"type":"Feature","geometry":{"type":"LineString","coordinates":[[3178.23,1244.0],[3221.63,1241.98],[3242.13,1234.15],[3260.97,1227.16],[3297.83,1209.29],[3286.33,1183.65]]},"properties":{"id":270,"group":"trails","name":null}},{"type":"Feature","geometry":{"type":"LineString","coordinates":[[3128.2,1550.44],[3100.49,1548.05]]},"properties":{"id":299,"group":"trails","name":null}},{"type":"Feature","geometry":{"type":"LineString","coordinates":[[3221.63,1241.98],[3221.92,1276.72]]},"properties":{"id":307,"group":"trails","name":null}},{"type":"Feature","geometry":{"type":"LineString","coordinates":[[2293.35,1733.28],[2286.03,1778.86]]},"properties":{"id":314,"group":"trails","name":null}},{"type":"Feature","geometry":{"type":"LineString","coordinates":[[2457.29,1752.98],[2492.97,1763.61]]},"properties":{"id":315,"group":"trails","name":null}},{"type":"Feature","geometry":{"type":"LineString","coordinates":[[3221.63,1241.98],[3240.54,1263.08],[3280.54,1266.92],[3293.71,1281.36],[3298.44,1294.82]]},"properties":{"id":325,"group":"trails","name":null}},{"type":"Feature","geometry":{"type":"LineString","coordinates":[[3297.83,1209.29],[3330.55,1245.2],[3295.81,1254.31],[3280.54,1266.92]]},"properties":{"id":341,"group":"trails","name":null}},{"type":"Feature","geometry":{"type":"LineString","coordinates":[[3297.83,1209.29],[3324.33,1181.9]]},"properties":{"id":344,"group":"trails","name":null}},{"type":"Feature","geometry":{"type":"LineString","coordinates":[[3328.09,1143.61],[3324.33,1181.9]]},"properties":{"id":346,"group":"trails","name":null}},{"type":"Feature","geometry":{"type":"LineString","coordinates":[[3286.33,1183.65],[3324.33,1181.9]]},"properties":{"id":347,"group":"trails","name":null}},{"type":"Feature","geometry":{"type":"LineString","coordinates":[[3365.8,1304.36],[3321.43,1308.85],[3298.44,1294.82]]},"properties":{"id":362,"group":"trails","name":null}},{"type":"Feature","geometry":{"type":"LineString","coordinates":[[3365.8,1304.36],[3363.43,1333.96]]},"properties":{"id":374,"group":"trails","name":null}},{"type":"Feature","geometry":{"type":"LineString","coordinates":[[3499.77,1108.35],[3515.14,1126.8],[3518.43,1149.51],[3505.87,1172.4],[3507.27,1192.75],[3526.71,1223.73],[3559.68,1249.15],[3589.8,1252.38],[3594.2,1269.6],[3598.41,1286.53],[3594.46,1304.41],[3600.89,1315.67],[3604.46,1357.31],[3603.4,1374.7],[3607.47,1391.36],[3621.7,1406.7],[3636.67,1422.8],[3643.0,1441.9],[3644.93,1462.47]]},"properties":{"id":396,"group":"trails","name":null}},{"type":"Feature","geometry":{"type":"LineString","coordinates":[[3365.8,1304.36],[3404.1,1319.72],[3419.41,1343.57]]},"properties":{"id":397,"group":"trails","name":null}},{"type":"Feature","geometry":{"type":"LineString","coordinates":[[3426.95,1215.58],[3427.19,1242.03],[3427.3,1268.69],[3427.2,1301.89],[3462.01,1294.48],[3488.18,1310.09]]},"properties":{"id":409,"group":"trails","name":null}},{"type":"Feature","geometry":{"type":"LineString","coordinates":[[3491.01,1350.08],[3510.12,1345.82]]},"properties":{"id":449,"group":"trails","name":null}},{"type":"Feature","geometry":{"type":"LineString","coordinates":[[3526.71,1223.73],[3519.73,1231.44],[3499.41,1251.26],[3492.62,1284.93]]},"properties":{"id":450,"group":"trails","name":null}},{"type":"Feature","geometry":{"type":"LineString","coordinates":[[3526.33,1315.98],[3488.18,1310.09]]},"properties":{"id":453,"group":"trails","name":null}},{"type":"Feature","geometry":{"type":"LineString","coordinates":[[3555.3,1098.0],[3515.14,1126.8]]},"properties":{"id":455,"group":"trails","name":null}},{"type":"Feature","geometry":{"type":"LineString","coordinates":[[3601.65,1235.17],[3589.8,1252.38]]},"properties":{"id":478,"group":"trails","name":null}},{"type":"Feature","geometry":{"type":"LineString","coordinates":[[3526.33,1315.98],[3510.12,1345.82]]},"properties":{"id":482,"group":"trails","name":null}},{"type":"Feature","geometry":{"type":"LineString","coordinates":[[3621.7,1406.7],[3598.57,1425.57],[3579.84,1441.09]]},"properties":{"id":485,"group":"trails","name":null}},{"type":"Feature","geometry":{"type":"LineString","coordinates":[[3632.35,1217.02],[3612.47,1224.64],[3601.65,1235.17]]},"properties":{"id":486,"group":"trails","name":null}},{"type":"Feature","geometry":{"type":"LineString","coordinates":[[3555.3,1098.0],[3585.31,1113.28]]},"properties":{"id":487,"group":"trails","name":null}},{"type":"Feature","geometry":{"type":"LineString","coordinates":[[3631.98,1108.95],[3614.59,1108.49],[3585.31,1113.28]]},"properties":{"id":492,"group":"trails","name":null}},{"type":"Feature","geometry":{"type":"LineString","coordinates":[[3645.71,1152.07],[3638.8,1172.2],[3631.8,1192.42],[3632.35,1217.02]]},"properties":{"id":493,"group":"trails","name":null}},{"type":"Feature","geometry":{"type":"LineString","coordinates":[[3708.62,1115.89],[3697.71,1092.94],[3697.78,1073.67]]},"properties":{"id":515,"group":"trails","name":null}},{"type":"Feature","geometry":{"type":"LineString","coordinates":[[3688.7,1129.6],[3708.62,1115.89]]},"properties":{"id":516,"group":"trails","name":null}},{"type":"Feature","geometry":{"type":"LineString","coordinates":[[3645.71,1152.07],[3668.78,1142.78],[3688.7,1129.6]]},"properties":{"id":517,"group":"trails","name":null}},{"type":"Feature","geometry":{"type":"LineString","coordinates":[[3570.84,980.72],[3588.9,998.9],[3607.04,1017.06],[3631.78,1025.42],[3658.06,1029.69],[3689.1,1026.9],[3713.67,1041.89],[3721.8,1064.1],[3729.86,1086.37],[3727.1,1101.7],[3724.33,1116.96],[3716.5,1136.9],[3708.69,1156.77],[3691.4,1164.2],[3674.14,1171.68],[3669.9,1195.5],[3649.98,1220.01],[3648.1,1244.0],[3642.7,1263.6]]},"properties":{"id":661,"group":"searoutes","name":null}},{"type":"Feature","geometry":{"type":"LineString","coordinates":[[3620.8,1290.7],[3625.2,1305.0],[3632.58,1338.85],[3627.68,1367.57],[3632.22,1389.45],[3647.8,1404.2],[3663.32,1418.89],[3661.8,1443.1],[3660.22,1467.38],[3646.3,1482.3],[3632.36,1497.25],[3603.7,1490.1],[3592.46,1501.21]]},"properties":{"id":661,"group":"searoutes","name":null}},{"type":"Feature","geometry":{"type":"LineString","coordinates":[[2651.3,1784.8],[2636.9,1793.18],[2616.56,1773.04],[2593.93,1756.12],[2569.62,1772.34],[2543.0,1753.1],[2539.26,1728.83],[2527.75,1723.53],[2516.4,1717.89],[2500.2,1702.79],[2485.08,1686.62],[2469.42,1684.31],[2454.05,1680.5],[2434.28,1672.93],[2415.13,1663.92]]},"properties":{"id":661,"group":"searoutes","name":null}},{"type":"Feature","geometry":{"type":"LineString","coordinates":[[2540.15,1700.12],[2539.63,1709.68],[2539.67,1719.26],[2539.26,1728.83],[2555.86,1729.47]]},"properties":{"id":674,"group":"searoutes","name":null}},{"type":"Feature","geometry":{"type":"LineString","coordinates":[[2654.28,1702.91],[2661.53,1715.32],[2662.95,1705.41],[2663.89,1695.44],[2665.42,1685.54]]},"properties":{"id":675,"group":"searoutes","name":null}},{"type":"Feature","geometry":{"type":"LineString","coordinates":[[2650.23,1742.26],[2657.9,1759.3]]},"properties":{"id":681,"group":"searoutes","name":null}},{"type":"Feature","geometry":{"type":"LineString","coordinates":[[2492.97,1763.61],[2507.31,1766.67],[2523.3,1747.8],[2539.26,1728.83]]},"properties":{"id":682,"group":"searoutes","name":null}},{"type":"Feature","geometry":{"type":"LineString","coordinates":[[2335.12,1789.98],[2343.15,1802.24],[2367.5,1795.5],[2391.8,1788.68],[2398.8,1772.8],[2425.4,1766.2],[2444.98,1775.61],[2456.6,1787.0],[2468.27,1798.41],[2488.2,1798.1],[2507.8,1782.2],[2507.31,1766.67]]},"properties":{"id":686,"group":"searoutes","name":null}},{"type":"Feature","geometry":{"type":"LineString","coordinates":[[2343.15,1802.24],[2342.1,1817.8],[2341.01,1833.33],[2343.86,1855.88],[2315.5,1865.82],[2296.1,1844.5],[2276.7,1823.25],[2270.53,1816.33],[2279.48,1794.99],[2286.03,1778.86]]},"properties":{"id":698,"group":"searoutes","name":null}},{"type":"Feature","geometry":{"type":"LineString","coordinates":[[3404.08,1319.12],[3412.47,1314.3],[3419.48,1307.55],[3427.59,1302.34],[3435.51,1295.51],[3441.76,1287.07],[3449.34,1279.92],[3463.63,1282.7],[3478.22,1283.2],[3492.57,1285.53],[3497.43,1286.16],[3502.16,1284.54],[3506.99,1284.72],[3518.53,1282.95],[3529.57,1279.02],[3541.01,1276.82],[3554.92,1286.17],[3569.96,1293.63],[3584.1,1302.6],[3590.83,1301.29],[3597.45,1299.45],[3604.16,1298.03],[3620.8,1290.7]]},"properties":{"id":703,"group":"searoutes","name":null}},{"type":"Feature","geometry":{"type":"LineString","coordinates":[[3495.13,1030.04],[3505.4,1030.7],[3510.58,1020.97],[3513.58,1010.31],[3518.32,1000.39],[3526.48,998.04],[3533.76,993.53],[3541.74,990.75],[3546.67,987.11]]},"properties":{"id":707,"group":"searoutes","name":null}},{"type":"Feature","geometry":{"type":"LineString","coordinates":[[3565.44,979.66],[3570.84,980.72]]},"properties":{"id":707,"group":"searoutes","name":null}},{"type":"Feature","geometry":{"type":"LineString","coordinates":[[2230.84,1837.52],[2260.2,1833.1],[2270.53,1816.33]]},"properties":{"id":709,"group":"searoutes","name":null}},{"type":"Feature","geometry":{"type":"LineString","coordinates":[[3631.52,1109.28],[3635.33,1123.85],[3641.44,1137.65],[3645.71,1152.07],[3655.05,1158.8],[3664.73,1165.05],[3674.14,1171.68]]},"properties":{"id":721,"group":"searoutes","name":null}},{"type":"Feature","geometry":{"type":"LineString","coordinates":[[3632.35,1217.02],[3649.98,1220.01]]},"properties":{"id":722,"group":"searoutes","name":null}},{"type":"Feature","geometry":{"type":"LineString","coordinates":[[3604.16,1298.03],[3599.07,1308.07],[3594.4,1318.31],[3589.2,1328.3]]},"properties":{"id":726,"group":"searoutes","name":null}},{"type":"Feature","geometry":{"type":"LineString","coordinates":[[2523.3,1747.8],[2543.0,1753.1]]},"properties":{"id":734,"group":"searoutes","name":null}},{"type":"Feature","geometry":{"type":"LineString","coordinates":[[2047.7,1690.6],[2065.45,1676.8],[2089.7,1681.9],[2113.97,1687.07],[2114.08,1697.53]]},"properties":{"id":759,"group":"searoutes","name":null}},{"type":"Feature","geometry":{"type":"LineString","coordinates":[[2172.33,1206.45],[2143.84,1212.52]]},"properties":{"id":761,"group":"trails","name":"Unnamed route segment"}},{"type":"Feature","geometry":{"type":"LineString","coordinates":[[2557.36,1295.0],[2534.76,1291.93],[2513.03,1300.09]]},"properties":{"id":762,"group":"trails","name":null}}]}